{
    "links": {
        "self": "http://www.neowsapp.com/rest/v1/neo/3648093?api_key=iIulBulltgU6a56xZRHN4H3l9WmuAYTsLGpBGhQ2"
    },
    "id": "3648093",
    "neo_reference_id": "3648093",
    "name": "(2013 RS73)",
    "designation": "2013 RS73",
    "nasa_jpl_url": "http://ssd.jpl.nasa.gov/sbdb.cgi?sstr=3648093",
    "absolute_magnitude_h": 27.3,
    "estimated_diameter": {
        "kilometers": {
            "estimated_diameter_min": 0.0092162655,
            "estimated_diameter_max": 0.0206081961
        },
        "meters": {
            "estimated_diameter_min": 9.216265485,
            "estimated_diameter_max": 20.6081961232
        },
        "miles": {
            "estimated_diameter_min": 0.0057267201,
            "estimated_diameter_max": 0.0128053354
        },
        "feet": {
            "estimated_diameter_min": 30.2370924539,
            "estimated_diameter_max": 67.6121941689
        }
    },
    "is_potentially_hazardous_asteroid": false,
    "close_approach_data": [
        {
            "close_approach_date": "2013-09-09",
            "close_approach_date_full": "2013-Sep-09 21:09",
            "epoch_date_close_approach": 1378760940000,
            "relative_velocity": {
                "kilometers_per_second": "14.2849951846",
                "kilometers_per_hour": "51425.9826645568",
                "miles_per_hour": "31954.1057284297"
            },
            "miss_distance": {
                "astronomical": "0.0030697566",
                "lunar": "1.1941353174",
                "kilometers": "459229.048778442",
                "miles": "285351.6989768196"
            },
            "orbiting_body": "Moon"
        },
        {
            "close_approach_date": "2013-09-10",
            "close_approach_date_full": "2013-Sep-10 02:40",
            "epoch_date_close_approach": 1378780800000,
            "relative_velocity": {
                "kilometers_per_second": "14.8188328792",
                "kilometers_per_hour": "53347.7983650991",
                "miles_per_hour": "33148.2472674695"
            },
            "miss_distance": {
                "astronomical": "0.0040999003",
                "lunar": "1.5948612167",
                "kilometers": "613336.352092361",
                "miles": "381109.5369061418"
            },
            "orbiting_body": "Earth"
        }
    ],
    "orbital_data": {
        "orbit_id": "4",
        "orbit_determination_date": "2017-04-06 08:44:43",
        "first_observation_date": "2013-09-13",
        "last_observation_date": "2013-09-14",
        "data_arc_in_days": 1,
        "observations_used": 22,
        "orbit_uncertainty": "8",
        "minimum_orbit_intersection": ".00127503",
        "jupiter_tisserand_invariant": "3.029",
        "epoch_osculation": "2456549.5",
        "eccentricity": ".6707596501609899",
        "semi_major_axis": "2.630494895831004",
        "inclination": "5.137688313069322",
        "ascending_node_longitude": "347.7343342178916",
        "orbital_period": "1558.312742738161",
        "perihelion_distance": ".86606505975313",
        "perihelion_argument": "309.7976851813477",
        "aphelion_distance": "4.394924731908877",
        "perihelion_time": "2456510.716707855011",
        "mean_anomaly": "8.959681063547611",
        "mean_motion": ".2310190952859903",
        "equinox": "J2000",
        "orbit_class": {
            "orbit_class_type": "APO",
            "orbit_class_description": "Near-Earth asteroid orbits which cross the Earth’s orbit similar to that of 1862 Apollo",
            "orbit_class_range": "a (semi-major axis) > 1.0 AU; q (perihelion) < 1.017 AU"
        }
    },
    "is_sentry_object": false
}